{
  "type": "FeatureCollection",
  "features": [
    {
      "type": "Feature",
      "geometry": {
        "type": "Polygon",
        "coordinates": [
          [
            [
              -98.806031,
              19.704004
            ],
            [
              -98.806074,
              19.704224
            ],
            [
              -98.805799,
              19.704296
            ],
            [
              -98.805674,
              19.704327
            ],
            [
              -98.805515,
              19.704381
            ],
            [
              -98.805235,
              19.704515
            ],
            [
              -98.805006,
              19.704643
            ],
            [
              -98.804703,
              19.704805
            ],
            [
              -98.804032,
              19.705127
            ],
            [
              -98.803819,
              19.705271
            ],
            [
              -98.803619,
              19.705212
            ],
            [
              -98.803475,
              19.705156
            ],
            [
              -98.803365,
              19.705096
            ],
            [
              -98.803632,
              19.704659
            ],
            [
              -98.803953,
              19.704225
            ],
            [
              -98.80412,
              19.703937
            ],
            [
              -98.80423,
              19.703765
            ],
            [
              -98.804418,
              19.703807
            ],
            [
              -98.804742,
              19.703837
            ],
            [
              -98.80488,
              19.703753
            ],
            [
              -98.805134,
              19.703558
            ],
            [
              -98.805542,
              19.703756
            ],
            [
              -98.806031,
              19.704004
            ]
          ]
        ]
      },
      "properties": {
        "nombre": "Zona en revision",
        "Area_m2": 24634.27,
        "Ha": 2.463,
        "Volumen_m3": 131083.0
      }
    }
  ]
}