{
  "type": "FeatureCollection",
  "features": [
    {
      "type": "Feature",
      "geometry": {
        "type": "Point",
        "coordinates": [
          -98.80353,
          19.705138
        ]
      },
      "properties": {
        "id": "DJI_20260918110946_0005_V.JPG",
        "titulo": "Vista Aérea Sur-Oriente - Relleno San Martín",
        "tipo": "foto_hd",
        "altitud_msnm": 2326.1,
        "archivo": "media/fotos/DJI_20260918110946_0005_V.JPG",
        "thumbnail": "media/fotos/thumb_DJI_20260918110946_0005_V.JPG",
        "fecha": "2026-09-18 11:09"
      }
    },
    {
      "type": "Feature",
      "geometry": {
        "type": "Point",
        "coordinates": [
          -98.805624,
          19.703413
        ]
      },
      "properties": {
        "id": "DJI_20260918111028_0007_V.JPG",
        "titulo": "Vista Aérea Nor-Poniente - Relleno San Martín",
        "tipo": "foto_hd",
        "altitud_msnm": 2328.8,
        "archivo": "media/fotos/DJI_20260918111028_0007_V.JPG",
        "thumbnail": "media/fotos/thumb_DJI_20260918111028_0007_V.JPG",
        "fecha": "2026-09-18 11:09"
      }
    },
    {
      "type": "Feature",
      "geometry": {
        "type": "Point",
        "coordinates": [
          -98.804355,
          19.70442
        ]
      },
      "properties": {
        "id": "DJI_20260918111105_0008_V.JPG",
        "titulo": "Panorama 360° - Vértice Central Norte",
        "tipo": "foto_360",
        "altitud_msnm": 2331.1,
        "archivo": "media/fotos360/DJI_20260918111105_0008_V.JPG",
        "archivo_web": "media/fotos360/web_DJI_20260918111105_0008_V.JPG",
        "thumbnail": "media/fotos360/thumb_DJI_20260918111105_0008_V.JPG",
        "fecha": "2026-09-18 11:11"
      }
    },
    {
      "type": "Feature",
      "geometry": {
        "type": "Point",
        "coordinates": [
          -98.804373,
          19.70379
        ]
      },
      "properties": {
        "id": "DJI_20260918111253_0009_V.JPG",
        "titulo": "Panorama 360° - Vértice Central Sur",
        "tipo": "foto_360",
        "altitud_msnm": 2310.5,
        "archivo": "media/fotos360/DJI_20260918111253_0009_V.JPG",
        "archivo_web": "media/fotos360/web_DJI_20260918111253_0009_V.JPG",
        "thumbnail": "media/fotos360/thumb_DJI_20260918111253_0009_V.JPG",
        "fecha": "2026-09-18 11:11"
      }
    }
  ]
}